{
  "type": "FeatureCollection",
  "features": [
    {
      "type": "Feature",
      "properties": {
        "norad_id": 40128,
        "name": "GSAT0201 (GALILEO 5)",
        "group": "gnss",
        "lat": 27.614846763963126,
        "lon": 73.8182853575415,
        "alt_km": 17437.901650377633,
        "timestamp": "2025-12-19T14:48:36.489952+00:00",
        "meta_object_name": "GSAT0201 (GALILEO 5)",
        "meta_object_id": "2014-050A",
        "meta_epoch": "2025-12-14T00:08:14.916480",
        "meta_mean_motion": 1.85519648,
        "meta_eccentricity": 0.16480052,
        "meta_inclination": 49.0753,
        "meta_ra_of_asc_node": 281.012,
        "meta_arg_of_pericenter": 172.3262,
        "meta_mean_anomaly": 190.5827,
        "meta_ephemeris_type": 0,
        "meta_classification_type": "U",
        "meta_norad_cat_id": 40128,
        "meta_element_set_no": 999,
        "meta_rev_at_epoch": 7488,
        "meta_bstar": 0,
        "meta_mean_motion_dot": -9.9e-07,
        "meta_mean_motion_ddot": 0,
        "tle_line1": "1 40128U 14050A   25348.00572820 -.00000099  00000+0  00000+0 0  9998",
        "tle_line2": "2 40128  49.0753 281.0120 1648005 172.3262 190.5827  1.85519648 74882"
      },
      "geometry": {
        "type": "Point",
        "coordinates": [
          73.8182853575415,
          27.614846763963126
        ]
      }
    },
    {
      "type": "Feature",
      "properties": {
        "norad_id": 40129,
        "name": "GSAT0202 (GALILEO 6)",
        "group": "gnss",
        "lat": -12.687967589702604,
        "lon": -91.38897913189165,
        "alt_km": 26123.154125238303,
        "timestamp": "2025-12-19T14:48:36.489964+00:00",
        "meta_object_name": "GSAT0202 (GALILEO 6)",
        "meta_object_id": "2014-050B",
        "meta_epoch": "2025-12-18T13:46:22.484640",
        "meta_mean_motion": 1.85520466,
        "meta_eccentricity": 0.16491259,
        "meta_inclination": 49.0858,
        "meta_ra_of_asc_node": 279.9095,
        "meta_arg_of_pericenter": 173.2442,
        "meta_mean_anomaly": 189.3393,
        "meta_ephemeris_type": 0,
        "meta_classification_type": "U",
        "meta_norad_cat_id": 40129,
        "meta_element_set_no": 999,
        "meta_rev_at_epoch": 7713,
        "meta_bstar": 0,
        "meta_mean_motion_dot": -5.9e-07,
        "meta_mean_motion_ddot": 0,
        "tle_line1": "1 40129U 14050B   25352.57387135 -.00000059  00000+0  00000+0 0  9995",
        "tle_line2": "2 40129  49.0858 279.9095 1649125 173.2442 189.3393  1.85520466 77135"
      },
      "geometry": {
        "type": "Point",
        "coordinates": [
          -91.38897913189165,
          -12.687967589702604
        ]
      }
    },
    {
      "type": "Feature",
      "properties": {
        "norad_id": 40269,
        "name": "IRNSS-1C",
        "group": "gnss",
        "lat": -5.180933025601985,
        "lon": 33.553728138607006,
        "alt_km": 35748.28904409541,
        "timestamp": "2025-12-19T14:48:36.489976+00:00",
        "meta_object_name": "IRNSS-1C",
        "meta_object_id": "2014-061A",
        "meta_epoch": "2025-12-18T08:33:07.675776",
        "meta_mean_motion": 1.00274321,
        "meta_eccentricity": 0.00180573,
        "meta_inclination": 6.0557,
        "meta_ra_of_asc_node": 92.5101,
        "meta_arg_of_pericenter": 1.4373,
        "meta_mean_anomaly": 204.5224,
        "meta_ephemeris_type": 0,
        "meta_classification_type": "U",
        "meta_norad_cat_id": 40269,
        "meta_element_set_no": 999,
        "meta_rev_at_epoch": 4087,
        "meta_bstar": 0,
        "meta_mean_motion_dot": -1.42e-06,
        "meta_mean_motion_ddot": 0,
        "tle_line1": "1 40269U 14061A   25352.35633884 -.00000142  00000+0  00000+0 0  9996",
        "tle_line2": "2 40269   6.0557  92.5101 0018057   1.4373 204.5224  1.00274321 40871"
      },
      "geometry": {
        "type": "Point",
        "coordinates": [
          33.553728138607006,
          -5.180933025601985
        ]
      }
    },
    {
      "type": "Feature",
      "properties": {
        "norad_id": 40294,
        "name": "GPS BIIF-8  (PRN 03)",
        "group": "gnss",
        "lat": 40.1823668920229,
        "lon": -175.55437551855402,
        "alt_km": 20096.893491868927,
        "timestamp": "2025-12-19T14:48:36.489987+00:00",
        "meta_object_name": "GPS BIIF-8  (PRN 03)",
        "meta_object_id": "2014-068A",
        "meta_epoch": "2025-12-18T10:36:49.514400",
        "meta_mean_motion": 2.0056529,
        "meta_eccentricity": 0.00608014,
        "meta_inclination": 56.862,
        "meta_ra_of_asc_node": 37.9254,
        "meta_arg_of_pericenter": 69.0723,
        "meta_mean_anomaly": 291.6423,
        "meta_ephemeris_type": 0,
        "meta_classification_type": "U",
        "meta_norad_cat_id": 40294,
        "meta_element_set_no": 999,
        "meta_rev_at_epoch": 8158,
        "meta_bstar": 0,
        "meta_mean_motion_dot": -6.7e-07,
        "meta_mean_motion_ddot": 0,
        "tle_line1": "1 40294U 14068A   25352.44223975 -.00000067  00000+0  00000+0 0  9993",
        "tle_line2": "2 40294  56.8620  37.9254 0060801  69.0723 291.6423  2.00565290 81588"
      },
      "geometry": {
        "type": "Point",
        "coordinates": [
          -175.55437551855402,
          40.1823668920229
        ]
      }
    },
    {
      "type": "Feature",
      "properties": {
        "norad_id": 40315,
        "name": "COSMOS 2501 (702K)",
        "group": "gnss",
        "lat": 28.85025638553427,
        "lon": -147.5299970762041,
        "alt_km": 19177.40316322653,
        "timestamp": "2025-12-19T14:48:36.490001+00:00",
        "meta_object_name": "COSMOS 2501 (702K)",
        "meta_object_id": "2014-075A",
        "meta_epoch": "2025-12-19T02:31:27.452640",
        "meta_mean_motion": 2.13101513,
        "meta_eccentricity": 0.00200994,
        "meta_inclination": 63.6146,
        "meta_ra_of_asc_node": 196.6046,
        "meta_arg_of_pericenter": 204.1838,
        "meta_mean_anomaly": 155.7988,
        "meta_ephemeris_type": 0,
        "meta_classification_type": "U",
        "meta_norad_cat_id": 40315,
        "meta_element_set_no": 999,
        "meta_rev_at_epoch": 8601,
        "meta_bstar": 0,
        "meta_mean_motion_dot": 1.06e-06,
        "meta_mean_motion_ddot": 0,
        "tle_line1": "1 40315U 14075A   25353.10517885  .00000106  00000+0  00000+0 0  9998",
        "tle_line2": "2 40315  63.6146 196.6046 0020099 204.1838 155.7988  2.13101513 86014"
      },
      "geometry": {
        "type": "Point",
        "coordinates": [
          -147.5299970762041,
          28.85025638553427
        ]
      }
    },
    {
      "type": "Feature",
      "properties": {
        "norad_id": 40534,
        "name": "GPS BIIF-9  (PRN 26)",
        "group": "gnss",
        "lat": 27.4569616198532,
        "lon": -125.4898441163703,
        "alt_km": 19894.072709018932,
        "timestamp": "2025-12-19T14:48:36.490012+00:00",
        "meta_object_name": "GPS BIIF-9  (PRN 26)",
        "meta_object_id": "2015-013A",
        "meta_epoch": "2025-12-18T13:43:57.304128",
        "meta_mean_motion": 2.00562317,
        "meta_eccentricity": 0.01072792,
        "meta_inclination": 53.1969,
        "meta_ra_of_asc_node": 211.6486,
        "meta_arg_of_pericenter": 38.6162,
        "meta_mean_anomaly": 322.2412,
        "meta_ephemeris_type": 0,
        "meta_classification_type": "U",
        "meta_norad_cat_id": 40534,
        "meta_element_set_no": 999,
        "meta_rev_at_epoch": 7820,
        "meta_bstar": 0,
        "meta_mean_motion_dot": 8.6e-07,
        "meta_mean_motion_ddot": 0,
        "tle_line1": "1 40534U 15013A   25352.57219102  .00000086  00000+0  00000+0 0  9992",
        "tle_line2": "2 40534  53.1969 211.6486 0107279  38.6162 322.2412  2.00562317 78200"
      },
      "geometry": {
        "type": "Point",
        "coordinates": [
          -125.4898441163703,
          27.4569616198532
        ]
      }
    },
    {
      "type": "Feature",
      "properties": {
        "norad_id": 40544,
        "name": "GSAT0203 (GALILEO 7)",
        "group": "gnss",
        "lat": -47.619380743135025,
        "lon": -59.2804053118496,
        "alt_km": 23209.873638302186,
        "timestamp": "2025-12-19T14:48:36.490023+00:00",
        "meta_object_name": "GSAT0203 (GALILEO 7)",
        "meta_object_id": "2015-017A",
        "meta_epoch": "2025-12-17T08:55:11.074944",
        "meta_mean_motion": 1.7047611,
        "meta_eccentricity": 0.00064774,
        "meta_inclination": 56.8452,
        "meta_ra_of_asc_node": 346.5536,
        "meta_arg_of_pericenter": 273.4606,
        "meta_mean_anomaly": 86.4809,
        "meta_ephemeris_type": 0,
        "meta_classification_type": "U",
        "meta_norad_cat_id": 40544,
        "meta_element_set_no": 999,
        "meta_rev_at_epoch": 6610,
        "meta_bstar": 0,
        "meta_mean_motion_dot": -7.9e-07,
        "meta_mean_motion_ddot": 0,
        "tle_line1": "1 40544U 15017A   25351.37165596 -.00000079  00000+0  00000+0 0  9994",
        "tle_line2": "2 40544  56.8452 346.5536 0006477 273.4606  86.4809  1.70476110 66108"
      },
      "geometry": {
        "type": "Point",
        "coordinates": [
          -59.2804053118496,
          -47.619380743135025
        ]
      }
    }
  ]
}